NIMIQ 2                 
1 27632U 02062A   26115.51284980 -.00000078  00000+0  00000+0 0  9996
2 27632   9.3279  57.4471 0006292 333.3085 258.2338  1.00272260 43653
ANIK F2                 
1 28378U 04027A   26115.61640318 -.00000061  00000+0  00000+0 0  9991
2 28378   3.1523  80.1234 0004279 331.9399 272.3405  1.00271325 40739
ANIK F1R                
1 28868U 05036A   26115.54577911 -.00000086  00000+0  00000+0 0  9993
2 28868   4.1802  77.2125 0003350 329.6267 255.9218  1.00272017 45921
ANIK F3                 
1 31102U 07009A   26115.47963115 -.00000014  00000+0  00000+0 0  9998
2 31102   1.0628  84.4052 0002679 306.3813 236.6618  1.00271955 46032
NIMIQ 4                 
1 33373U 08044A   26115.86780985 -.00000234  00000+0  00000+0 0  9999
2 33373   0.0073 279.9811 0002226 109.7942  54.5337  1.00271560 64450
TELSTAR 11N             
1 34111U 09009A   26115.84482588  .00000000  00000+0  00000+0 0  9998
2 34111   0.0134 230.7066 0002539 152.0282  97.7060  1.00267675 45724
TERRESTAR-1             
1 35496U 09035A   26115.60374433 -.00000067  00000+0  00000+0 0  9991
2 35496   5.1491  48.8070 0002957 347.0409 284.1124  1.00272151 61600
NIMIQ 5                 
1 35873U 09050A   26115.86780985  .00000000  00000+0  00000+0 0  9994
2 35873   0.0218 108.1624 0003011 295.8677  49.5663  1.00268867 60827
SKYTERRA 1              
1 37218U 10061A   26115.59981479 -.00000129  00000+0  00000+0 0  9997
2 37218   5.0163  50.8819 0003038  23.9710 253.3593  1.00271499 56661
TELSTAR 14R             
1 37602U 11021A   26115.26937899 -.00000294  00000+0  00000+0 0  9995
2 37602   0.0167 259.7848 0002299 127.8802 219.5841  1.00270056 55301
NIMIQ 6                 
1 38342U 12026A   26115.87336475 -.00000187  00000+0  00000+0 0  9994
2 38342   0.0622  75.8877 0002522 313.0103  48.2946  1.00271827 49886
ANIK G1                 
1 39127U 13014A   26115.68836649  .00000000  00000+0  00000+0 0  9994
2 39127   0.0231 107.2129 0002174 268.0777 338.9259  1.00269283 47723
TELSTAR 12V             
1 41036U 15068A   26115.85044699 -.00000132  00000+0  00000+0 0  9999
2 41036   0.0076 211.8257 0002453 177.2723 115.9253  1.00271618 38102
VIASAT-2                
1 42740U 17029A   26115.86780985 -.00000279  00000+0  00000+0 0  9999
2 42740   0.0162 267.6379 0000278  94.7680  93.9867  1.00271486 32689
LEO 1 (LEO VANTAGE 1)   
1 43113U 18004C   26115.75427413  .00001669  00000+0  12187-3 0  9996
2 43113  99.2450  27.2062 0350178 240.3062 116.2858 14.67560438429799
TELSTAR 19V             
1 43562U 18059A   26115.86225472 -.00000293  00000+0  00000+0 0  9997
2 43562   0.0191 192.6196 0001600 252.4883  16.1710  1.00270825 28614
TELSTAR 18V             
1 43611U 18069A   26115.36572515 -.00000308  00000+0  00000+0 0  9998
2 43611   0.0146 260.5875 0002048 120.2326 102.2236  1.00271621 28119
