[{"OBJECT_NAME":"NIMIQ 2","OBJECT_ID":"2002-062A","EPOCH":"2026-04-25T12:18:30.222720","MEAN_MOTION":1.0027226,"ECCENTRICITY":0.0006292,"INCLINATION":9.3279,"RA_OF_ASC_NODE":57.4471,"ARG_OF_PERICENTER":333.3085,"MEAN_ANOMALY":258.2338,"EPHEMERIS_TYPE":0,"CLASSIFICATION_TYPE":"U","NORAD_CAT_ID":27632,"ELEMENT_SET_NO":999,"REV_AT_EPOCH":4365,"BSTAR":0,"MEAN_MOTION_DOT":-7.8e-7,"MEAN_MOTION_DDOT":0},{"OBJECT_NAME":"ANIK F2","OBJECT_ID":"2004-027A","EPOCH":"2026-04-25T14:47:37.234752","MEAN_MOTION":1.00271325,"ECCENTRICITY":0.0004279,"INCLINATION":3.1523,"RA_OF_ASC_NODE":80.1234,"ARG_OF_PERICENTER":331.9399,"MEAN_ANOMALY":272.3405,"EPHEMERIS_TYPE":0,"CLASSIFICATION_TYPE":"U","NORAD_CAT_ID":28378,"ELEMENT_SET_NO":999,"REV_AT_EPOCH":4073,"BSTAR":0,"MEAN_MOTION_DOT":-6.1e-7,"MEAN_MOTION_DDOT":0},{"OBJECT_NAME":"ANIK F1R","OBJECT_ID":"2005-036A","EPOCH":"2026-04-25T13:05:55.315104","MEAN_MOTION":1.00272017,"ECCENTRICITY":0.000335,"INCLINATION":4.1802,"RA_OF_ASC_NODE":77.2125,"ARG_OF_PERICENTER":329.6267,"MEAN_ANOMALY":255.9218,"EPHEMERIS_TYPE":0,"CLASSIFICATION_TYPE":"U","NORAD_CAT_ID":28868,"ELEMENT_SET_NO":999,"REV_AT_EPOCH":4592,"BSTAR":0,"MEAN_MOTION_DOT":-8.6e-7,"MEAN_MOTION_DDOT":0},{"OBJECT_NAME":"ANIK F3","OBJECT_ID":"2007-009A","EPOCH":"2026-04-25T11:30:40.131360","MEAN_MOTION":1.00271955,"ECCENTRICITY":0.0002679,"INCLINATION":1.0628,"RA_OF_ASC_NODE":84.4052,"ARG_OF_PERICENTER":306.3813,"MEAN_ANOMALY":236.6618,"EPHEMERIS_TYPE":0,"CLASSIFICATION_TYPE":"U","NORAD_CAT_ID":31102,"ELEMENT_SET_NO":999,"REV_AT_EPOCH":4603,"BSTAR":0,"MEAN_MOTION_DOT":-1.4e-7,"MEAN_MOTION_DDOT":0},{"OBJECT_NAME":"NIMIQ 4","OBJECT_ID":"2008-044A","EPOCH":"2026-04-25T20:49:38.771040","MEAN_MOTION":1.0027156,"ECCENTRICITY":0.0002226,"INCLINATION":0.0073,"RA_OF_ASC_NODE":279.9811,"ARG_OF_PERICENTER":109.7942,"MEAN_ANOMALY":54.5337,"EPHEMERIS_TYPE":0,"CLASSIFICATION_TYPE":"U","NORAD_CAT_ID":33373,"ELEMENT_SET_NO":999,"REV_AT_EPOCH":6445,"BSTAR":0,"MEAN_MOTION_DOT":-2.34e-6,"MEAN_MOTION_DDOT":0},{"OBJECT_NAME":"TELSTAR 11N","OBJECT_ID":"2009-009A","EPOCH":"2026-04-25T20:16:32.956032","MEAN_MOTION":1.00267675,"ECCENTRICITY":0.0002539,"INCLINATION":0.0134,"RA_OF_ASC_NODE":230.7066,"ARG_OF_PERICENTER":152.0282,"MEAN_ANOMALY":97.706,"EPHEMERIS_TYPE":0,"CLASSIFICATION_TYPE":"U","NORAD_CAT_ID":34111,"ELEMENT_SET_NO":999,"REV_AT_EPOCH":4572,"BSTAR":0,"MEAN_MOTION_DOT":0,"MEAN_MOTION_DDOT":0},{"OBJECT_NAME":"TERRESTAR-1","OBJECT_ID":"2009-035A","EPOCH":"2026-04-25T14:29:23.510112","MEAN_MOTION":1.00272151,"ECCENTRICITY":0.0002957,"INCLINATION":5.1491,"RA_OF_ASC_NODE":48.807,"ARG_OF_PERICENTER":347.0409,"MEAN_ANOMALY":284.1124,"EPHEMERIS_TYPE":0,"CLASSIFICATION_TYPE":"U","NORAD_CAT_ID":35496,"ELEMENT_SET_NO":999,"REV_AT_EPOCH":6160,"BSTAR":0,"MEAN_MOTION_DOT":-6.7e-7,"MEAN_MOTION_DDOT":0},{"OBJECT_NAME":"NIMIQ 5","OBJECT_ID":"2009-050A","EPOCH":"2026-04-25T20:49:38.771040","MEAN_MOTION":1.00268867,"ECCENTRICITY":0.0003011,"INCLINATION":0.0218,"RA_OF_ASC_NODE":108.1624,"ARG_OF_PERICENTER":295.8677,"MEAN_ANOMALY":49.5663,"EPHEMERIS_TYPE":0,"CLASSIFICATION_TYPE":"U","NORAD_CAT_ID":35873,"ELEMENT_SET_NO":999,"REV_AT_EPOCH":6082,"BSTAR":0,"MEAN_MOTION_DOT":0,"MEAN_MOTION_DDOT":0},{"OBJECT_NAME":"SKYTERRA 1","OBJECT_ID":"2010-061A","EPOCH":"2026-04-25T14:23:43.997856","MEAN_MOTION":1.00271499,"ECCENTRICITY":0.0003038,"INCLINATION":5.0163,"RA_OF_ASC_NODE":50.8819,"ARG_OF_PERICENTER":23.971,"MEAN_ANOMALY":253.3593,"EPHEMERIS_TYPE":0,"CLASSIFICATION_TYPE":"U","NORAD_CAT_ID":37218,"ELEMENT_SET_NO":999,"REV_AT_EPOCH":5666,"BSTAR":0,"MEAN_MOTION_DOT":-1.29e-6,"MEAN_MOTION_DDOT":0},{"OBJECT_NAME":"TELSTAR 14R","OBJECT_ID":"2011-021A","EPOCH":"2026-04-25T06:27:54.344736","MEAN_MOTION":1.00270056,"ECCENTRICITY":0.0002299,"INCLINATION":0.0167,"RA_OF_ASC_NODE":259.7848,"ARG_OF_PERICENTER":127.8802,"MEAN_ANOMALY":219.5841,"EPHEMERIS_TYPE":0,"CLASSIFICATION_TYPE":"U","NORAD_CAT_ID":37602,"ELEMENT_SET_NO":999,"REV_AT_EPOCH":5530,"BSTAR":0,"MEAN_MOTION_DOT":-2.94e-6,"MEAN_MOTION_DDOT":0},{"OBJECT_NAME":"NIMIQ 6","OBJECT_ID":"2012-026A","EPOCH":"2026-04-25T20:57:38.714400","MEAN_MOTION":1.00271827,"ECCENTRICITY":0.0002522,"INCLINATION":0.0622,"RA_OF_ASC_NODE":75.8877,"ARG_OF_PERICENTER":313.0103,"MEAN_ANOMALY":48.2946,"EPHEMERIS_TYPE":0,"CLASSIFICATION_TYPE":"U","NORAD_CAT_ID":38342,"ELEMENT_SET_NO":999,"REV_AT_EPOCH":4988,"BSTAR":0,"MEAN_MOTION_DOT":-1.87e-6,"MEAN_MOTION_DDOT":0},{"OBJECT_NAME":"ANIK G1","OBJECT_ID":"2013-014A","EPOCH":"2026-04-25T16:31:14.864736","MEAN_MOTION":1.00269283,"ECCENTRICITY":0.0002174,"INCLINATION":0.0231,"RA_OF_ASC_NODE":107.2129,"ARG_OF_PERICENTER":268.0777,"MEAN_ANOMALY":338.9259,"EPHEMERIS_TYPE":0,"CLASSIFICATION_TYPE":"U","NORAD_CAT_ID":39127,"ELEMENT_SET_NO":999,"REV_AT_EPOCH":4772,"BSTAR":0,"MEAN_MOTION_DOT":0,"MEAN_MOTION_DDOT":0},{"OBJECT_NAME":"TELSTAR 12V","OBJECT_ID":"2015-068A","EPOCH":"2026-04-25T20:24:38.619936","MEAN_MOTION":1.00271618,"ECCENTRICITY":0.0002453,"INCLINATION":0.0076,"RA_OF_ASC_NODE":211.8257,"ARG_OF_PERICENTER":177.2723,"MEAN_ANOMALY":115.9253,"EPHEMERIS_TYPE":0,"CLASSIFICATION_TYPE":"U","NORAD_CAT_ID":41036,"ELEMENT_SET_NO":999,"REV_AT_EPOCH":3810,"BSTAR":0,"MEAN_MOTION_DOT":-1.32e-6,"MEAN_MOTION_DDOT":0},{"OBJECT_NAME":"VIASAT-2","OBJECT_ID":"2017-029A","EPOCH":"2026-04-25T20:49:38.771040","MEAN_MOTION":1.00271486,"ECCENTRICITY":2.78e-5,"INCLINATION":0.0162,"RA_OF_ASC_NODE":267.6379,"ARG_OF_PERICENTER":94.768,"MEAN_ANOMALY":93.9867,"EPHEMERIS_TYPE":0,"CLASSIFICATION_TYPE":"U","NORAD_CAT_ID":42740,"ELEMENT_SET_NO":999,"REV_AT_EPOCH":3268,"BSTAR":0,"MEAN_MOTION_DOT":-2.79e-6,"MEAN_MOTION_DDOT":0},{"OBJECT_NAME":"LEO 1 (LEO VANTAGE 1)","OBJECT_ID":"2018-004C","EPOCH":"2026-04-25T18:06:09.284832","MEAN_MOTION":14.67560438,"ECCENTRICITY":0.0350178,"INCLINATION":99.245,"RA_OF_ASC_NODE":27.2062,"ARG_OF_PERICENTER":240.3062,"MEAN_ANOMALY":116.2858,"EPHEMERIS_TYPE":0,"CLASSIFICATION_TYPE":"U","NORAD_CAT_ID":43113,"ELEMENT_SET_NO":999,"REV_AT_EPOCH":42979,"BSTAR":0.00012187,"MEAN_MOTION_DOT":1.669e-5,"MEAN_MOTION_DDOT":0},{"OBJECT_NAME":"TELSTAR 19V","OBJECT_ID":"2018-059A","EPOCH":"2026-04-25T20:41:38.807808","MEAN_MOTION":1.00270825,"ECCENTRICITY":0.00016,"INCLINATION":0.0191,"RA_OF_ASC_NODE":192.6196,"ARG_OF_PERICENTER":252.4883,"MEAN_ANOMALY":16.171,"EPHEMERIS_TYPE":0,"CLASSIFICATION_TYPE":"U","NORAD_CAT_ID":43562,"ELEMENT_SET_NO":999,"REV_AT_EPOCH":2861,"BSTAR":0,"MEAN_MOTION_DOT":-2.93e-6,"MEAN_MOTION_DDOT":0},{"OBJECT_NAME":"TELSTAR 18V","OBJECT_ID":"2018-069A","EPOCH":"2026-04-25T08:46:38.652960","MEAN_MOTION":1.00271621,"ECCENTRICITY":0.0002048,"INCLINATION":0.0146,"RA_OF_ASC_NODE":260.5875,"ARG_OF_PERICENTER":120.2326,"MEAN_ANOMALY":102.2236,"EPHEMERIS_TYPE":0,"CLASSIFICATION_TYPE":"U","NORAD_CAT_ID":43611,"ELEMENT_SET_NO":999,"REV_AT_EPOCH":2811,"BSTAR":0,"MEAN_MOTION_DOT":-3.08e-6,"MEAN_MOTION_DDOT":0}]
